[{"OBJECT_NAME":"STARLINK-31671","OBJECT_ID":"2024-073F","EPOCH":"2026-03-09T02:32:27.923136","MEAN_MOTION":15.27573781,"ECCENTRICITY":0.00030145,"INCLINATION":42.9998,"RA_OF_ASC_NODE":321.5442,"ARG_OF_PERICENTER":242.6241,"MEAN_ANOMALY":117.4304,"EPHEMERIS_TYPE":0,"CLASSIFICATION_TYPE":"U","NORAD_CAT_ID":59516,"ELEMENT_SET_NO":999,"REV_AT_EPOCH":10608,"BSTAR":-9.889024e-6,"MEAN_MOTION_DOT":-5.35e-6,"MEAN_MOTION_DDOT":0},{"OBJECT_NAME":"BREEZE-M DEB [TANK]","OBJECT_ID":"2012-026C","EPOCH":"2026-03-09T00:42:23.622048","MEAN_MOTION":3.77519992,"ECCENTRICITY":0.61919899,"INCLINATION":49.3962,"RA_OF_ASC_NODE":357.7818,"ARG_OF_PERICENTER":215.5369,"MEAN_ANOMALY":80.5754,"EPHEMERIS_TYPE":0,"CLASSIFICATION_TYPE":"U","NORAD_CAT_ID":38344,"ELEMENT_SET_NO":999,"REV_AT_EPOCH":17781,"BSTAR":0.001279297,"MEAN_MOTION_DOT":8.995e-5,"MEAN_MOTION_DDOT":0}]
